STARLINK-35785          
1 67176U 25303P   25351.60835648 -.00002699  85337-5  00000+0 0  9993
2 67176  43.0100  69.0834 0011500 323.6500   9.4800 16.01284782    14
STARLINK-35853          
1 67177U 25303Q   25351.60835648 -.00002699  85337-5  00000+0 0  9994
2 67177  43.0100  69.0834 0011500 323.6500   9.4800 16.01284782    15
STARLINK-35878          
1 67178U 25303R   25351.60835648 -.00002699  85337-5  00000+0 0  9995
2 67178  43.0100  69.0834 0011500 323.6500   9.4800 16.01284782    16
STARLINK-35793          
1 67179U 25303S   25351.60835648 -.00002699  85337-5  00000+0 0  9996
2 67179  43.0100  69.0834 0011500 323.6500   9.4800 16.01284782    17
STARLINK-35876          
1 67180U 25303T   25351.60835648 -.00002699  85337-5  00000+0 0  9998
2 67180  43.0100  69.0834 0011500 323.6500   9.4800 16.01284782    19
STARLINK-35766          
1 67181U 25303U   25351.60835648 -.00002699  85337-5  00000+0 0  9999
2 67181  43.0100  69.0834 0011500 323.6500   9.4800 16.01284782    10
STARLINK-35782          
1 67182U 25303V   25351.60835648 -.00002699  85337-5  00000+0 0  9990
2 67182  43.0100  69.0834 0011500 323.6500   9.4800 16.01284782    11
STARLINK-35719          
1 67183U 25303W   25351.60835648 -.00002699  85337-5  00000+0 0  9991
2 67183  43.0100  69.0834 0011500 323.6500   9.4800 16.01284782    12
STARLINK-35910          
1 67184U 25303X   25351.60835648 -.00002699  85337-5  00000+0 0  9992
2 67184  43.0100  69.0834 0011500 323.6500   9.4800 16.01284782    13
STARLINK-35859          
1 67185U 25303Y   25351.60835648 -.00002699  85337-5  00000+0 0  9993
2 67185  43.0100  69.0834 0011500 323.6500   9.4800 16.01284782    14
STARLINK-35857          
1 67186U 25303Z   25351.60835648 -.00002699  85337-5  00000+0 0  9994
2 67186  43.0100  69.0834 0011500 323.6500   9.4800 16.01284782    15
STARLINK-35880          
1 67187U 25303AA  25351.60835648 -.00002699  85337-5  00000+0 0  9995
2 67187  43.0100  69.0834 0011500 323.6500   9.4800 16.01284782    16
